NORAD_CAT_ID,OBJECT_NAME,OBJECT_TYPE,EPOCH,MEAN_MOTION,ECCENTRICITY,INCLINATION,RA_OF_ASC_NODE,ARG_OF_PERICENTER,MEAN_ANOMALY,BSTAR,MEAN_MOTION_DOT,MEAN_MOTION_DDOT,TLE_LINE0,TLE_LINE1,TLE_LINE2,SEMIMAJOR_AXIS,PERIOD,APOGEE,PERIGEE,DECAYED
53248.0,STARLINK-4135,PAYLOAD,2022-07-28 20:00:01,15.8932493,0.003975,53.2175,22.4276,52.8344,335.2405,-0.0041678,-0.01323125,0.00049612,0 STARLINK-4135,1 53248U 22086G   22209.83334491 -.01323125  49612-3 -41678-2 0  9992,2 53248  53.2175  22.4276 0039750  52.8344 335.2405 15.89324930  1300,6682.311,90.605,330.7390000000001,277.61400000000003,0.0
53248.0,STARLINK-4135,PAYLOAD,2022-07-29 06:00:00,15.88260146,0.003502,53.2177,20.3158,55.0412,197.5906,-0.0047161,-0.01394347,0.0005405,0 STARLINK-4135,1 53248U 22086G   22210.25001157 -.01394347  54050-3 -47161-2 0  9999,2 53248  53.2177  20.3158 0035020  55.0412 197.5906 15.88260146  1363,6685.2980000000025,90.665,330.575,283.751,0.0
53248.0,STARLINK-4135,PAYLOAD,2022-07-29 14:00:01,15.87360305,0.0031529,53.2177,18.6306,54.8733,304.2309,-0.0048264,-0.01350242,0.00050553,0 STARLINK-4135,1 53248U 22086G   22210.58334491 -.01350242  50553-3 -48264-2 0  9990,2 53248  53.2177  18.6306 0031529  54.8733 304.2309 15.87360305  1306,6687.824000000001,90.717,330.775,288.603,0.0
53248.0,STARLINK-4135,PAYLOAD,2022-07-29 22:00:00,15.86460326,0.0027548,53.2173,16.9491,55.4912,49.0287,-0.0049281,-0.01305557,0.00047157,0 STARLINK-4135,1 53248U 22086G   22210.91667824 -.01305557  47157-3 -49281-2 0  9991,2 53248  53.2173  16.9491 0027548  55.4912  49.0287 15.86460326  1470,6690.353,90.768,330.649,293.7870000000001,0.0
53248.0,STARLINK-4135,PAYLOAD,2022-07-30 06:00:00,15.85614565,0.002487,53.2175,15.2658,55.6915,153.1716,-0.0054443999999999,-0.0137467,0.00051414,0 STARLINK-4135,1 53248U 22086G   22211.25001157 -.01374670  51414-3 -54444-2 0  9990,2 53248  53.2175  15.2658 0024870  55.6915 153.1716 15.85614565  1524,6692.732,90.817,331.242,297.952,0.0
53248.0,STARLINK-4135,PAYLOAD,2022-07-30 14:00:01,15.84739659,0.0020946,53.2176,13.5874,54.4137,257.745,-0.0057594,-0.01219005,0.0,0 STARLINK-4135,1 53248U 22086G   22211.58334491 -.01219005  00000-0 -57594-2 0  9997,2 53248  53.2176  13.5874 0020946  54.4137 257.7450 15.84739659  1302,6695.195,90.867,331.084,303.036,0.0
53248.0,STARLINK-4135,PAYLOAD,2022-07-30 22:00:00,15.83829851,0.0018202,53.2174,11.9119,55.2001,359.2095,-0.0057547,-0.01165707,0.0,0 STARLINK-4135,1 53248U 22086G   22211.91667824 -.01165707  00000-0 -57547-2 0  9990,2 53248  53.2174  11.9119 0018202  55.2001 359.2095 15.83829851  1637,6697.759,90.919,331.815,307.432,0.0
53248.0,STARLINK-4135,PAYLOAD,2022-07-31 14:00:01,15.82108058,0.001186,53.2175,8.5637,50.2676,205.4444,-0.0066507999999999,-0.01243522,0.0,0 STARLINK-4135,1 53248U 22086G   22212.58334491 -.01243522  00000-0 -66508-2 0  9994,2 53248  53.2175   8.5637 0011860  50.2676 205.4444 15.82108058  1303,6702.6169999999975,91.018,332.431,316.533,0.0
53248.0,STARLINK-4135,PAYLOAD,2022-07-31 22:00:00,15.81212441,0.0008817,53.2171,6.8947,47.4895,307.3004,-0.0067726,-0.0121324,0.0,0 STARLINK-4135,1 53248U 22086G   22212.91667824 -.01213240  00000-0 -67726-2 0  9997,2 53248  53.2171   6.8947 0008817  47.4895 307.3004 15.81212441  1308,6705.148,91.069,332.925,321.101,0.0
53248.0,STARLINK-4135,PAYLOAD,2022-08-01 04:00:00,15.80559999,0.0006553,53.2175,5.6417,40.5007,297.9,-0.0070653,-0.01223669,0.0,0 STARLINK-4135,1 53248U 22086G   22213.16667824 -.01223669  00000-0 -70653-2 0  9994,2 53248  53.2175   5.6417 0006553  40.5007 297.9000 15.80559999  1823,6706.993,91.107,333.2530000000001,324.463,0.0
53248.0,STARLINK-4135,PAYLOAD,2022-08-01 14:00:01,15.79455085,0.0004316,53.2177,3.5594,21.0848,168.6831,-0.0073566999999999,-0.01210163,0.0,0 STARLINK-4135,1 53248U 22086G   22213.58334491 -.01210163  00000-0 -73567-2 0  9993,2 53248  53.2177   3.5594 0004316  21.0848 168.6831 15.79455085  1308,6710.121,91.171,334.88199999999995,329.089,0.0
53248.0,STARLINK-4135,PAYLOAD,2022-08-01 22:00:00,15.78577624,0.0003232,53.2173,1.8966,7.2323,278.4391,-0.0076698,-0.01210998,0.0,0 STARLINK-4135,1 53248U 22086G   22213.91667824 -.01210998  00000-0 -76698-2 0  9993,2 53248  53.2173   1.8966 0003232   7.2323 278.4391 15.78577624  1942,6712.607,91.221,336.641,332.302,0.0
53248.0,STARLINK-4135,PAYLOAD,2022-08-02 14:00:01,15.76816581,0.0003528,53.2173,358.5747,5.3859,108.9284,-0.0082607,-0.01205434,0.0,0 STARLINK-4135,1 53248U 22086G   22214.58334491 -.01205434  00000-0 -82607-2 0  9994,2 53248  53.2173 358.5747 0003528   5.3859 108.9284 15.76816581  2059,6717.604,91.323,341.839,337.099,0.0
53248.0,STARLINK-4135,PAYLOAD,2022-08-03 06:00:00,15.75049982,0.0003992,53.2174,355.2609,328.5797,330.1554,-0.0088049,-0.01190119,0.0,0 STARLINK-4135,1 53248U 22086G   22215.25001157 -.01190119  00000-0 -88049-2 0  9998,2 53248  53.2174 355.2609 0003992 328.5797 330.1554 15.75049982  2159,6722.626,91.426,347.175,341.807,0.0
53248.0,STARLINK-4135,PAYLOAD,2022-08-03 14:00:01,15.74057805,0.0002070999999999,53.2177,353.6093,274.1092,115.2669,-0.0065872,-0.00866894,0.0,0 STARLINK-4135,1 53248U 22086G   22215.58334491 -.00866894  00000-0 -65872-2 0  9992,2 53248  53.2177 353.6093 0002071 274.1092 115.2669 15.74057805  1309,6725.451,91.483,348.708,345.923,0.0
53248.0,STARLINK-4135,PAYLOAD,2022-08-03 22:00:01,15.73296796,0.0001746,53.2172,351.9589,248.0105,231.0176,-0.0010663,-0.00148283,0.0,0 STARLINK-4135,1 53248U 22086G   22215.91668981 -.00148283  00000-0 -10663-2 0  9996,2 53248  53.2172 351.9589 0001746 248.0105 231.0176 15.73296796  2267,6727.619000000002,91.528,350.659,348.31,0.0
53248.0,STARLINK-4135,PAYLOAD,2022-08-04 06:00:00,15.73436507,0.0001720999999999,53.2178,350.3087,279.3949,288.3983,-0.0022088,-0.003028,0.0,0 STARLINK-4135,1 53248U 22086G   22216.25001157 -.00302800  00000-0 -22088-2 0  9991,2 53248  53.2178 350.3087 0001721 279.3949 288.3983 15.73436507  2318,6727.221,91.519,350.244,347.92800000000005,0.0
53248.0,STARLINK-4135,PAYLOAD,2022-08-04 12:00:00,15.73200922,0.0001558,53.2175,349.0711,283.598,261.0459,3.7355e-05,4.625e-05,0.0,0 STARLINK-4135,1 53248U 22086G   22216.50001157  .00004625  00000-0  37355-4 0  9996,2 53248  53.2175 349.0711 0001558 283.5980 261.0459 15.73200922  2354,6727.893,91.533,350.806,348.709,0.0
53248.0,STARLINK-4135,PAYLOAD,2022-08-04 14:00:01,15.73203079,0.0001545,53.2173,348.6595,283.8608,13.0148,1.7815e-05,1.881e-05,0.0,0 STARLINK-4135,1 53248U 22086G   22216.58334491  .00001881  00000-0  17815-4 0  9994,2 53248  53.2173 348.6595 0001545 283.8608  13.0148 15.73203079  1303,6727.886,91.533,350.791,348.712,0.0
53248.0,STARLINK-4135,PAYLOAD,2022-08-04 22:00:00,15.73235722,0.0002004,53.2196,347.0137,290.2886,95.5046,-2.4771e-05,-4.102e-05,0.0,0 STARLINK-4135,1 53248U 22086G   22216.91667824 -.00004102  00000-0 -24771-4 0  9990,2 53248  53.2196 347.0137 0002004 290.2886  95.5046 15.73235722  1306,6727.793000000002,91.531,351.00699999999995,348.31,0.0
53248.0,STARLINK-4135,PAYLOAD,2022-08-05 04:00:00,15.73212674,0.0001854,53.22,345.7749,286.7766,75.751,0.00040126,0.00056103,0.0,0 STARLINK-4135,1 53248U 22086G   22217.16667824  .00056103  00000-0  40126-3 0  9995,2 53248  53.2200 345.7749 0001854 286.7766  75.7510 15.73212674  2459,6727.859,91.532,350.971,348.477,0.0
53248.0,STARLINK-4135,PAYLOAD,2022-08-05 12:00:00,15.73281673,0.0001719,53.22,344.1261,294.1395,157.3507,-0.00076842,-0.00107476,0.0,0 STARLINK-4135,1 53248U 22086G   22217.50001157 -.00107476  00000-0 -76842-3 0  9990,2 53248  53.2200 344.1261 0001719 294.1395 157.3507 15.73281673  2517,6727.6619999999975,91.528,350.684,348.371,0.0
53248.0,STARLINK-4135,PAYLOAD,2022-08-05 14:00:01,15.73237781,0.0001721999999999,53.2199,343.7142,299.09,264.7264,-0.00031796,-0.00045079,0.0,0 STARLINK-4135,1 53248U 22086G   22217.58335648 -.00045079  00000-0 -31796-3 0  9992,2 53248  53.2199 343.7142 0001722 299.0900 264.7264 15.73237781  1307,6727.7869999999975,91.531,350.811,348.494,0.0
53248.0,STARLINK-4135,PAYLOAD,2022-08-05 22:00:00,15.73258914,0.0001723,53.2193,342.0648,304.3813,348.3298,-0.00055909,-0.00078557,0.0,0 STARLINK-4135,1 53248U 22086G   22217.91667824 -.00078557  00000-0 -55909-3 0  9992,2 53248  53.2193 342.0648 0001723 304.3813 348.3298 15.73258914  1305,6727.727,91.53,350.751,348.43300000000005,0.0
53248.0,STARLINK-4135,PAYLOAD,2022-08-06 14:00:01,15.73232874,0.0001526,53.2194,338.7661,312.8814,157.7272,-0.0006515,-0.00091199,0.0,0 STARLINK-4135,1 53248U 22086G   22218.58334491 -.00091199  00000-0 -65150-3 0  9993,2 53248  53.2194 338.7661 0001526 312.8814 157.7272 15.73232874  2682,6727.801,91.531,350.6930000000001,348.64,0.0
53248.0,STARLINK-4135,PAYLOAD,2022-08-06 21:09:20,15.73183913,0.0001495,53.2198,337.2892,318.2931,41.7975,-9.626e-05,-0.00014098,0.0,0 STARLINK-4135,1 53248U 22086G   22218.88148594 -.00014098  00000-0 -96260-4 0  9993,2 53248  53.2198 337.2892 0001495 318.2931  41.7975 15.73183913  3234,6727.941,91.534,350.81199999999984,348.8,0.0
53248.0,STARLINK-4135,PAYLOAD,2022-08-06 22:00:00,15.73192077,0.0001564,53.2195,337.1165,319.0381,240.49,5.978600000000001e-05,7.775e-05,0.0,0 STARLINK-4135,1 53248U 22086G   22218.91667824  .00007775  00000-0  59786-4 0  9993,2 53248  53.2195 337.1165 0001564 319.0381 240.4900 15.73192077  2739,6727.918000000002,91.534,350.835,348.731,0.0
53248.0,STARLINK-4135,PAYLOAD,2022-08-07 12:24:08,15.73228649,0.000164,53.2199,334.1457,323.5948,36.496,0.00027832,0.00038668,0.0,0 STARLINK-4135,1 53248U 22086G   22219.51676378  .00038668  00000-0  27832-3 0  9995,2 53248  53.2199 334.1457 0001640 323.5948  36.4960 15.73228649  2822,6727.813,91.532,350.782,348.575,0.0
53248.0,STARLINK-4135,PAYLOAD,2022-08-07 21:33:01,15.73225007,0.0001520999999999,53.22,332.2597,330.8323,29.2612,0.00017876,0.00024568,0.0,0 STARLINK-4135,1 53248U 22086G   22219.89793160  .00024568  00000-0  17876-3 0  9996,2 53248  53.2200 332.2597 0001521 330.8323  29.2612 15.73225007  3397,6727.824000000001,91.532,350.712,348.666,0.0
